STARLINK-31547          
1 59364U 24060S   25341.22980417 -.00003193  00000+0 -10665-3 0  9995
2 59364  43.0041  50.6564 0002060 276.1653  83.8964 15.27544690 96056
STARLINK-31537          
1 59365U 24060T   25340.93365537  .00003052  00000+0  12039-3 0  9992
2 59365  43.0039  63.9815 0002089 266.4380  93.6233 15.27582196 95870
STARLINK-31451          
1 59366U 24060U   25341.27843416  .00001151  00000+0  51330-4 0  9994
2 59366  43.0024  61.4084 0000913 258.4392 101.6357 15.27575297 95932
STARLINK-31428          
1 59367U 24060V   25341.22463915 -.00006126  00000+0 -21338-3 0  9995
2 59367  43.0082  61.8676 0001676 277.1989  82.8673 15.27559213 95925
STARLINK-31419          
1 59368U 24060W   25341.23103144  .00005317  00000+0  20252-3 0  9995
2 59368  43.0033  61.9145 0002082 279.2130  80.8486 15.27593936 95927
STARLINK-31583          
1 59369U 24060X   25341.25804813  .00001855  00000+0  76956-4 0  9995
2 59369  43.0049  50.8696 0001226 278.2723  81.7990 15.27567112 96051
STARLINK-31461          
1 59370U 24060Y   25341.20421869  .00004453  00000+0  17132-3 0  9995
2 59370  43.0037  51.3259 0001521 254.5153 105.5531 15.27565553 95987
STARLINK-31641          
1 59374U 24062A   25340.69629054 -.00001554  00000+0 -40374-4 0  9995
2 59374  53.1625 330.4594 0001209  97.4665 262.6474 15.30186398 95389
STARLINK-31430          
1 59375U 24062B   25340.68889987 -.00000113  00000+0  83076-5 0  9994
2 59375  53.1628 330.4104 0000932 102.5735 257.5370 15.30198141 95396
STARLINK-31695          
1 59376U 24062C   25341.21922473 -.00000170  00000+0  64085-5 0  9995
2 59376  53.1619 325.1925 0002097  89.9024 270.2217 15.30194670 95476
STARLINK-31716          
1 59377U 24062D   25341.25131432  .00002101  00000+0  83096-4 0  9994
2 59377  53.1610 276.3859 0001403 108.0637 252.0516 15.30172395 96150
STARLINK-31710          
1 59378U 24062E   25341.22977661  .00003280  00000+0  12285-3 0  9994
2 59378  53.1602 325.2527 0001290  98.4507 261.6640 15.30196124 95474
STARLINK-31698          
1 59379U 24062F   25340.95480165  .00003381  00000+0  12625-3 0  9992
2 59379  53.1622 326.3992 0001423  84.9584 275.1580 15.30195617 95433
STARLINK-31680          
1 59380U 24062G   25340.69523091 -.00001192  00000+0 -28115-4 0  9993
2 59380  53.1629 330.4479 0001442  95.1054 265.0112 15.30194407 95351
STARLINK-31713          
1 59381U 24062H   25341.27041457  .00000792  00000+0  38882-4 0  9995
2 59381  53.1652 327.6397 0001042  70.0965 290.0148 15.30184117 95448
STARLINK-31705          
1 59382U 24062J   25341.22660979  .00004309  00000+0  15763-3 0  9997
2 59382  53.1638 325.2349 0001649  90.6968 269.4222 15.30178386 95475
