[{"OBJECT_NAME":"STARLINK-31547","OBJECT_ID":"2024-060S","EPOCH":"2025-12-07T05:30:55.080288","MEAN_MOTION":15.2754469,"ECCENTRICITY":0.00020606,"INCLINATION":43.0041,"RA_OF_ASC_NODE":50.6564,"ARG_OF_PERICENTER":276.1653,"MEAN_ANOMALY":83.8964,"EPHEMERIS_TYPE":0,"CLASSIFICATION_TYPE":"U","NORAD_CAT_ID":59364,"ELEMENT_SET_NO":999,"REV_AT_EPOCH":9605,"BSTAR":-0.00010665148,"MEAN_MOTION_DOT":-3.193e-5,"MEAN_MOTION_DDOT":0},{"OBJECT_NAME":"STARLINK-31537","OBJECT_ID":"2024-060T","EPOCH":"2025-12-06T22:24:27.823968","MEAN_MOTION":15.27582196,"ECCENTRICITY":0.00020892,"INCLINATION":43.0039,"RA_OF_ASC_NODE":63.9815,"ARG_OF_PERICENTER":266.438,"MEAN_ANOMALY":93.6233,"EPHEMERIS_TYPE":0,"CLASSIFICATION_TYPE":"U","NORAD_CAT_ID":59365,"ELEMENT_SET_NO":999,"REV_AT_EPOCH":9587,"BSTAR":0.00012039055,"MEAN_MOTION_DOT":3.052e-5,"MEAN_MOTION_DDOT":0},{"OBJECT_NAME":"STARLINK-31451","OBJECT_ID":"2024-060U","EPOCH":"2025-12-07T06:40:56.711424","MEAN_MOTION":15.27575297,"ECCENTRICITY":9.132e-5,"INCLINATION":43.0024,"RA_OF_ASC_NODE":61.4084,"ARG_OF_PERICENTER":258.4392,"MEAN_ANOMALY":101.6357,"EPHEMERIS_TYPE":0,"CLASSIFICATION_TYPE":"U","NORAD_CAT_ID":59366,"ELEMENT_SET_NO":999,"REV_AT_EPOCH":9593,"BSTAR":5.1329644e-5,"MEAN_MOTION_DOT":1.151e-5,"MEAN_MOTION_DDOT":0},{"OBJECT_NAME":"STARLINK-31428","OBJECT_ID":"2024-060V","EPOCH":"2025-12-07T05:23:28.822560","MEAN_MOTION":15.27559213,"ECCENTRICITY":0.00016761,"INCLINATION":43.0082,"RA_OF_ASC_NODE":61.8676,"ARG_OF_PERICENTER":277.1989,"MEAN_ANOMALY":82.8673,"EPHEMERIS_TYPE":0,"CLASSIFICATION_TYPE":"U","NORAD_CAT_ID":59367,"ELEMENT_SET_NO":999,"REV_AT_EPOCH":9592,"BSTAR":-0.00021337625,"MEAN_MOTION_DOT":-6.126e-5,"MEAN_MOTION_DDOT":0},{"OBJECT_NAME":"STARLINK-31419","OBJECT_ID":"2024-060W","EPOCH":"2025-12-07T05:32:41.116416","MEAN_MOTION":15.27593936,"ECCENTRICITY":0.0002082,"INCLINATION":43.0033,"RA_OF_ASC_NODE":61.9145,"ARG_OF_PERICENTER":279.213,"MEAN_ANOMALY":80.8486,"EPHEMERIS_TYPE":0,"CLASSIFICATION_TYPE":"U","NORAD_CAT_ID":59368,"ELEMENT_SET_NO":999,"REV_AT_EPOCH":9592,"BSTAR":0.00020252068,"MEAN_MOTION_DOT":5.317e-5,"MEAN_MOTION_DDOT":0},{"OBJECT_NAME":"STARLINK-31583","OBJECT_ID":"2024-060X","EPOCH":"2025-12-07T06:11:35.358432","MEAN_MOTION":15.27567112,"ECCENTRICITY":0.00012268,"INCLINATION":43.0049,"RA_OF_ASC_NODE":50.8696,"ARG_OF_PERICENTER":278.2723,"MEAN_ANOMALY":81.799,"EPHEMERIS_TYPE":0,"CLASSIFICATION_TYPE":"U","NORAD_CAT_ID":59369,"ELEMENT_SET_NO":999,"REV_AT_EPOCH":9605,"BSTAR":7.6955907e-5,"MEAN_MOTION_DOT":1.855e-5,"MEAN_MOTION_DDOT":0},{"OBJECT_NAME":"STARLINK-31461","OBJECT_ID":"2024-060Y","EPOCH":"2025-12-07T04:54:04.494816","MEAN_MOTION":15.27565553,"ECCENTRICITY":0.0001521,"INCLINATION":43.0037,"RA_OF_ASC_NODE":51.3259,"ARG_OF_PERICENTER":254.5153,"MEAN_ANOMALY":105.5531,"EPHEMERIS_TYPE":0,"CLASSIFICATION_TYPE":"U","NORAD_CAT_ID":59370,"ELEMENT_SET_NO":999,"REV_AT_EPOCH":9598,"BSTAR":0.00017132351,"MEAN_MOTION_DOT":4.453e-5,"MEAN_MOTION_DDOT":0},{"OBJECT_NAME":"STARLINK-31641","OBJECT_ID":"2024-062A","EPOCH":"2025-12-06T16:42:39.502656","MEAN_MOTION":15.30186398,"ECCENTRICITY":0.00012094,"INCLINATION":53.1625,"RA_OF_ASC_NODE":330.4594,"ARG_OF_PERICENTER":97.4665,"MEAN_ANOMALY":262.6474,"EPHEMERIS_TYPE":0,"CLASSIFICATION_TYPE":"U","NORAD_CAT_ID":59374,"ELEMENT_SET_NO":999,"REV_AT_EPOCH":9538,"BSTAR":-4.037399e-5,"MEAN_MOTION_DOT":-1.554e-5,"MEAN_MOTION_DDOT":0},{"OBJECT_NAME":"STARLINK-31430","OBJECT_ID":"2024-062B","EPOCH":"2025-12-06T16:32:00.948768","MEAN_MOTION":15.30198141,"ECCENTRICITY":9.325e-5,"INCLINATION":53.1628,"RA_OF_ASC_NODE":330.4104,"ARG_OF_PERICENTER":102.5735,"MEAN_ANOMALY":257.537,"EPHEMERIS_TYPE":0,"CLASSIFICATION_TYPE":"U","NORAD_CAT_ID":59375,"ELEMENT_SET_NO":999,"REV_AT_EPOCH":9539,"BSTAR":8.30756e-6,"MEAN_MOTION_DOT":-1.13e-6,"MEAN_MOTION_DDOT":0},{"OBJECT_NAME":"STARLINK-31695","OBJECT_ID":"2024-062C","EPOCH":"2025-12-07T05:15:41.016672","MEAN_MOTION":15.3019467,"ECCENTRICITY":0.00020972,"INCLINATION":53.1619,"RA_OF_ASC_NODE":325.1925,"ARG_OF_PERICENTER":89.9024,"MEAN_ANOMALY":270.2217,"EPHEMERIS_TYPE":0,"CLASSIFICATION_TYPE":"U","NORAD_CAT_ID":59376,"ELEMENT_SET_NO":999,"REV_AT_EPOCH":9547,"BSTAR":6.408503e-6,"MEAN_MOTION_DOT":-1.7e-6,"MEAN_MOTION_DDOT":0},{"OBJECT_NAME":"STARLINK-31716","OBJECT_ID":"2024-062D","EPOCH":"2025-12-07T06:01:53.557248","MEAN_MOTION":15.30172395,"ECCENTRICITY":0.00014034,"INCLINATION":53.161,"RA_OF_ASC_NODE":276.3859,"ARG_OF_PERICENTER":108.0637,"MEAN_ANOMALY":252.0516,"EPHEMERIS_TYPE":0,"CLASSIFICATION_TYPE":"U","NORAD_CAT_ID":59377,"ELEMENT_SET_NO":999,"REV_AT_EPOCH":9615,"BSTAR":8.309628e-5,"MEAN_MOTION_DOT":2.101e-5,"MEAN_MOTION_DDOT":0},{"OBJECT_NAME":"STARLINK-31710","OBJECT_ID":"2024-062E","EPOCH":"2025-12-07T05:30:52.699104","MEAN_MOTION":15.30196124,"ECCENTRICITY":0.00012907,"INCLINATION":53.1602,"RA_OF_ASC_NODE":325.2527,"ARG_OF_PERICENTER":98.4507,"MEAN_ANOMALY":261.664,"EPHEMERIS_TYPE":0,"CLASSIFICATION_TYPE":"U","NORAD_CAT_ID":59378,"ELEMENT_SET_NO":999,"REV_AT_EPOCH":9547,"BSTAR":0.00012284948,"MEAN_MOTION_DOT":3.28e-5,"MEAN_MOTION_DDOT":0},{"OBJECT_NAME":"STARLINK-31698","OBJECT_ID":"2024-062F","EPOCH":"2025-12-06T22:54:54.862560","MEAN_MOTION":15.30195617,"ECCENTRICITY":0.00014231,"INCLINATION":53.1622,"RA_OF_ASC_NODE":326.3992,"ARG_OF_PERICENTER":84.9584,"MEAN_ANOMALY":275.158,"EPHEMERIS_TYPE":0,"CLASSIFICATION_TYPE":"U","NORAD_CAT_ID":59379,"ELEMENT_SET_NO":999,"REV_AT_EPOCH":9543,"BSTAR":0.00012624513,"MEAN_MOTION_DOT":3.381e-5,"MEAN_MOTION_DDOT":0},{"OBJECT_NAME":"STARLINK-31680","OBJECT_ID":"2024-062G","EPOCH":"2025-12-06T16:41:07.950624","MEAN_MOTION":15.30194407,"ECCENTRICITY":0.00014421,"INCLINATION":53.1629,"RA_OF_ASC_NODE":330.4479,"ARG_OF_PERICENTER":95.1054,"MEAN_ANOMALY":265.0112,"EPHEMERIS_TYPE":0,"CLASSIFICATION_TYPE":"U","NORAD_CAT_ID":59380,"ELEMENT_SET_NO":999,"REV_AT_EPOCH":9535,"BSTAR":-2.8115423e-5,"MEAN_MOTION_DOT":-1.192e-5,"MEAN_MOTION_DDOT":0},{"OBJECT_NAME":"STARLINK-31713","OBJECT_ID":"2024-062H","EPOCH":"2025-12-07T06:29:23.818848","MEAN_MOTION":15.30184117,"ECCENTRICITY":0.00010425,"INCLINATION":53.1652,"RA_OF_ASC_NODE":327.6397,"ARG_OF_PERICENTER":70.0965,"MEAN_ANOMALY":290.0148,"EPHEMERIS_TYPE":0,"CLASSIFICATION_TYPE":"U","NORAD_CAT_ID":59381,"ELEMENT_SET_NO":999,"REV_AT_EPOCH":9544,"BSTAR":3.8882124e-5,"MEAN_MOTION_DOT":7.92e-6,"MEAN_MOTION_DDOT":0},{"OBJECT_NAME":"STARLINK-31705","OBJECT_ID":"2024-062J","EPOCH":"2025-12-07T05:26:19.085856","MEAN_MOTION":15.30178386,"ECCENTRICITY":0.00016499,"INCLINATION":53.1638,"RA_OF_ASC_NODE":325.2349,"ARG_OF_PERICENTER":90.6968,"MEAN_ANOMALY":269.4222,"EPHEMERIS_TYPE":0,"CLASSIFICATION_TYPE":"U","NORAD_CAT_ID":59382,"ELEMENT_SET_NO":999,"REV_AT_EPOCH":9547,"BSTAR":0.00015762541,"MEAN_MOTION_DOT":4.309e-5,"MEAN_MOTION_DDOT":0}]
